[{"OBJECT_NAME":"TIANMU-1 07","OBJECT_ID":"2023-101A","EPOCH":"2026-03-06T13:47:20.454720","MEAN_MOTION":15.29118809,"ECCENTRICITY":0.00046097,"INCLINATION":97.2728,"RA_OF_ASC_NODE":118.5929,"ARG_OF_PERICENTER":142.4105,"MEAN_ANOMALY":217.7458,"EPHEMERIS_TYPE":0,"CLASSIFICATION_TYPE":"U","NORAD_CAT_ID":57399,"ELEMENT_SET_NO":999,"REV_AT_EPOCH":14596,"BSTAR":0.00029794732,"MEAN_MOTION_DOT":8.352e-5,"MEAN_MOTION_DDOT":0},{"OBJECT_NAME":"STARLINK-32536","OBJECT_ID":"2024-207P","EPOCH":"2026-03-09T22:25:28.688448","MEAN_MOTION":15.2762972,"ECCENTRICITY":0.00019239,"INCLINATION":43.0003,"RA_OF_ASC_NODE":284.3214,"ARG_OF_PERICENTER":274.1329,"MEAN_ANOMALY":85.9303,"EPHEMERIS_TYPE":0,"CLASSIFICATION_TYPE":"U","NORAD_CAT_ID":61925,"ELEMENT_SET_NO":999,"REV_AT_EPOCH":7471,"BSTAR":0.0010205219,"MEAN_MOTION_DOT":0.0002797,"MEAN_MOTION_DDOT":0}]
